{"type":"FeatureCollection","features":[{"type":"Feature","id":"15242507B15912619562849","properties":{"kind":"district","shapeId":"15242507B15912619562849","name":"Al Hujjaylah","cityPcode":"YE18"},"geometry":{"type":"Polygon","coordinates":[[[43.643128673000035,15.007759204000024],[43.63343000100008,15.008690001000048],[43.62829000100004,15.00706],[43.62215,14.99327],[43.59295,14.99161],[43.58328103500003,14.998266735000072],[43.57378883200005,15.001975469000058],[43.56800559100003,15.008300568000038],[43.54582,15.021],[43.53011,15.02291],[43.52165,15.02768],[43.513700001000075,15.036050001000035],[43.51217161100004,15.048441753000077],[43.50653846300003,15.046912870000028],[43.495945007000046,15.048278319000076],[43.502240001000075,15.02937],[43.50138,15.015869999000074],[43.49773,14.999940001000027],[43.53448,14.9841],[43.54164,14.968700001000059],[43.548759999000026,14.963250001000063],[43.55661000100008,14.95288],[43.57,14.94661],[43.58462,14.94641],[43.59895000100005,14.94142000100004],[43.606989999000064,14.935580001000062],[43.61852,14.93157],[43.630313828000055,14.930121686000064],[43.643727643000034,14.926122537000026],[43.650790001000075,14.93591],[43.648960001000034,14.94575],[43.65648,14.964190001000077],[43.65989,14.96776],[43.663202883000054,14.967188414000077],[43.664581388000045,14.96828253600006],[43.66622382000003,14.972281642000041],[43.66316721900006,14.979183023000076],[43.66005729900007,14.982532302000038],[43.64976224700007,14.98845811600006],[43.64521668800006,14.993922035000026],[43.64298390400006,14.999628423000047],[43.643128673000035,15.007759204000024]]]}},{"type":"Feature","id":"15242507B23661917867997","properties":{"kind":"district","shapeId":"15242507B23661917867997","name":"Hays","cityPcode":"YE18"},"geometry":{"type":"Polygon","coordinates":[[[43.610106709000036,13.907325359000026],[43.61027,13.921610001000033],[43.60629000100005,13.94554],[43.60069999900003,13.95747],[43.59278,13.96241],[43.57665,13.96128],[43.57656,13.964149999000028],[43.57281,13.96636],[43.55841,13.96856],[43.55328,13.97305],[43.54799,14.00112],[43.537785384000074,14.032576150000068],[43.51392521300005,14.034561578000023],[43.49590322200004,14.032397905000039],[43.49649,14.021460001000037],[43.49112000100007,14.002240001000075],[43.4837,13.99545],[43.484830001000034,13.979479999000034],[43.465050001000066,13.97675],[43.45662999900003,13.980040001000077],[43.45333,13.985170001000029],[43.45061,13.99369],[43.44108,13.99642],[43.435830001000056,13.99978],[43.41862000100008,13.999579999000048],[43.416910001000076,13.99446],[43.41854000100005,13.986300001000075],[43.426090001000034,13.97858],[43.41213000100004,13.972609999000042],[43.40779,13.980060001000027],[43.40112,13.97732],[43.39484,13.96815],[43.38651,13.94619],[43.39645,13.93842],[43.39801,13.9314],[43.40824,13.92501],[43.4086,13.9202],[43.41053,13.917679999000029],[43.42803,13.91897],[43.43785,13.911820001000024],[43.44579,13.90841],[43.44976000100007,13.90469],[43.45108000100004,13.89891],[43.44891,13.89494],[43.4453,13.89001],[43.43796,13.88558000100005],[43.43659,13.88168],[43.43798000100003,13.851939999000024],[43.446630001000074,13.83929],[43.46899,13.82456],[43.46945,13.832530001000066],[43.473340001000054,13.83715],[43.48188,13.853320001000043],[43.48354,13.8757],[43.481973233000076,13.890743787000076],[43.48712350200003,13.895670129000052],[43.53526731100004,13.901044322000075],[43.552061663000075,13.900148623000064],[43.56451000100003,13.89607],[43.57977,13.89842],[43.60286198400007,13.908035260000077],[43.610106709000036,13.907325359000026]]]}},{"type":"Feature","id":"15242507B61035382056720","properties":{"kind":"district","shapeId":"15242507B61035382056720","name":"Az Zuhrah","cityPcode":"YE18"},"geometry":{"type":"Polygon","coordinates":[[[42.88235,15.81918],[42.88898,15.78879],[42.89746,15.77666],[42.90037,15.77474],[42.90344,15.76083],[42.91164,15.7496],[42.91103,15.73991],[42.91759,15.72848],[42.93241,15.716449999000076],[42.93936,15.69753],[42.94482,15.69235],[42.94959,15.688639999000031],[42.95571,15.6898],[42.95807,15.68868],[42.96144,15.68933],[42.96846,15.69454],[42.97518,15.697249999000064],[42.98825,15.69031],[42.99568,15.67626],[43.00776,15.66477],[43.01976,15.66181],[43.0382,15.66011],[43.04414,15.65227],[43.05999,15.64607],[43.08148,15.63062],[43.08981,15.63019],[43.11372,15.63343],[43.12882,15.63255],[43.14451,15.6236],[43.15191,15.61206],[43.16533,15.56012],[43.22658,15.55821],[43.2279,15.57028],[43.22454,15.59017],[43.22251,15.62038],[43.23509000100006,15.668420001000072],[43.24334,15.68223000100005],[43.24454,15.68434],[43.24361,15.68788],[43.23092,15.69269],[43.22455,15.69856],[43.21477,15.712],[43.21394,15.724809999000058],[43.2238,15.74326],[43.23548,15.75791],[43.2397,15.76661],[43.24437,15.80685],[43.24479,15.84012],[43.24311,15.86922],[43.23913,15.874029999000072],[43.22359,15.881679999000028],[43.21245,15.8852],[43.20419,15.88472],[43.180326422000064,15.873420692000025],[43.13285808400008,15.856631997000022],[43.10269061300005,15.842814834000023],[43.03053109800004,15.820863419000034],[42.96643,15.814],[42.94291434000007,15.813444427000036],[42.92778556300004,15.813804635000054],[42.88235,15.81918]]]}},{"type":"Feature","id":"15242507B40747525321849","properties":{"kind":"district","shapeId":"15242507B40747525321849","name":"Kamaran","cityPcode":"YE18"},"geometry":{"type":"MultiPolygon","coordinates":[[[[42.16438331000006,15.028925628000025],[42.157640308000055,15.031532422000055],[42.152055903000075,15.028322188000061],[42.15033133900005,15.021266086000026],[42.15236723900006,15.016516137000053],[42.15413041800008,15.015834334000033],[42.15830581200004,15.017977511000026],[42.16046095300004,15.013839639000025],[42.16581393000007,15.013393697000026],[42.166021218000026,15.021511942000075],[42.16749344200008,15.023134865000031],[42.16701258300003,15.026296356000046],[42.16438331000006,15.028925628000025]]],[[[42.14406152500004,15.069850763000034],[42.14008529000006,15.06784648100006],[42.14124906600006,15.065098676000048],[42.14464341400003,15.065583583000034],[42.14509599300004,15.066908995000063],[42.142930077000074,15.067135285000063],[42.14406152500004,15.069850763000034]]],[[[42.192798082000024,15.067809873000044],[42.183056915000066,15.078894649000063],[42.17835428300003,15.079342519000022],[42.17074049800004,15.076319398000066],[42.170724215000064,15.070333873000038],[42.16957480600007,15.069299406000027],[42.16296570600008,15.066138532000025],[42.16055146000008,15.06669019800006],[42.162276062000046,15.064356949000057],[42.16111129800004,15.05952428200004],[42.16950885600005,15.038138502000038],[42.171241449000036,15.038265372000069],[42.17253197600007,15.033883738000043],[42.17635631700006,15.033552796000038],[42.18070560000007,15.028285367000024],[42.18951704700004,15.039932014000044],[42.191951817000074,15.04025025900006],[42.19520661900003,15.044299767000041],[42.19456692700004,15.05078717300006],[42.19055151500004,15.05585132400006],[42.19247262600004,15.057936894000022],[42.192907802000036,15.061483427000042],[42.19020669200006,15.062977658000023],[42.192798082000024,15.067809873000044]]],[[[42.157735897000066,15.08470148200007],[42.15629913600003,15.087517533000039],[42.15756348600007,15.08918417600006],[42.156184730000064,15.090763197000058],[42.150552092000055,15.090448526000046],[42.147003400000074,15.087852044000044],[42.14565979200006,15.08303744400007],[42.14711536800007,15.078894649000063],[42.148347010000066,15.078222844000038],[42.15888530500007,15.082000372000039],[42.16043949300007,15.083821216000047],[42.157735897000066,15.08470148200007]]],[[[42.108439033000025,15.124486363000074],[42.10518248200003,15.124222318000022],[42.10509446700007,15.121669886000063],[42.10430233300008,15.123034117000032],[42.103568876000054,15.122083067000062],[42.103953819000026,15.117582283000047],[42.105915939000056,15.116215408000073],[42.110218889000066,15.118562471000075],[42.108439033000025,15.124486363000074]]],[[[42.11583228300003,15.129327181000065],[42.11627235700007,15.132539724000026],[42.11442404500008,15.134696089000045],[42.112003635000065,15.130603396000026],[42.11583228300003,15.129327181000065]]],[[[42.10701123500007,15.146570763000057],[42.10396005300004,15.148448414000029],[42.10341240500003,15.150951948000056],[42.10202881500004,15.147187587000076],[42.10610663800003,15.14024102600007],[42.10810653200008,15.140859575000036],[42.10557854900003,15.14530188200007],[42.10701123500007,15.146570763000057]]],[[[42.57149132500007,15.172801101000061],[42.573134596000045,15.174759041000073],[42.571875920000025,15.179304260000038],[42.56806,15.17776],[42.566946106000046,15.175458305000063],[42.56897397200004,15.172731174000035],[42.57149132500007,15.172801101000061]]],[[[42.10996396300004,15.176485046000039],[42.10842444000008,15.173545956000055],[42.11081186300004,15.171522477000053],[42.11659441100005,15.16973213600005],[42.11844883800006,15.170396930000038],[42.115842144000055,15.171674035000024],[42.11365532100007,15.176432562000059],[42.10996396300004,15.176485046000039]]],[[[42.031465221000076,15.179239934000066],[42.03315522100007,15.18265993500006],[42.02588522100007,15.208219935000045],[42.023545220000074,15.210309935000055],[42.020445221000045,15.207359935000056],[42.01822522100008,15.200029935000032],[42.023485221000044,15.184379935000038],[42.028865221000046,15.179039935000048],[42.031465221000076,15.179239934000066]]],[[[42.060735220000026,15.195889935000025],[42.05872522100003,15.205999935000023],[42.052975221000054,15.21984993500007],[42.04831522100005,15.225179934000039],[42.04453522100005,15.225679935000073],[42.041635220000046,15.221579935000022],[42.040825221000034,15.211719935000076],[42.041275221000035,15.189679935000072],[42.04262522000005,15.18369993400006],[42.04425522100007,15.182309935000035],[42.05113522100004,15.183379935000062],[42.056415221000066,15.190199934000077],[42.059245221000026,15.189249935000078],[42.060735220000026,15.195889935000025]]],[[[42.52372826900006,15.416163986000072],[42.52389742300005,15.41874516200005],[42.52164787000004,15.418729850000034],[42.522967073000075,15.415415320000022],[42.52372826900006,15.416163986000072]]],[[[42.63049685100003,15.410213567000028],[42.631913506000046,15.412299199000074],[42.62897538200008,15.422992592000071],[42.62915889800007,15.41887090800003],[42.62358882400008,15.411881034000032],[42.62488556000005,15.409911917000045],[42.63049685100003,15.410213567000028]]],[[[42.636475725000025,15.457055664000052],[42.62396193300003,15.455914470000039],[42.619157219000044,15.450518789000057],[42.60950907500006,15.444371300000057],[42.59786980100006,15.442178722000051],[42.59684871800005,15.44115763900004],[42.60125639100005,15.434665790000054],[42.600584009000045,15.430559459000051],[42.59851883600004,15.428254151000033],[42.600776118000056,15.42943081900006],[42.60168863600006,15.432096332000071],[42.60069083700006,15.427944011000022],[42.59098443600004,15.423734426000067],[42.58987115800005,15.426158127000065],[42.591112,15.427839641000048],[42.59702895100003,15.430819498000062],[42.594625808000046,15.43178401800003],[42.586638349000054,15.426482349000025],[42.57395160800007,15.406640473000039],[42.56296957600006,15.397954579000043],[42.55580284400003,15.388897591000045],[42.55820607800007,15.383348859000023],[42.55637843900007,15.37791468200004],[42.553719423000075,15.374889634000056],[42.55340461000003,15.369419769000046],[42.55903460700006,15.36516995200003],[42.56001567000004,15.359857343000044],[42.56545728800006,15.349657931000024],[42.562679278000076,15.329535637000049],[42.560230243000035,15.32376030200004],[42.55285368800003,15.316846103000046],[42.54565235500007,15.313383166000051],[42.53815664500007,15.313009374000046],[42.53561771100004,15.311376238000037],[42.53440355300006,15.30553582500005],[42.53665540800006,15.300460992000069],[42.54368837700008,15.294276549000074],[42.548959023000066,15.286460327000043],[42.55488238200007,15.282609328000035],[42.558086788000026,15.277732858000036],[42.57327354700004,15.264857423000024],[42.576802275000034,15.26555264700005],[42.58549455900004,15.263202885000055],[42.59073074600008,15.264626883000062],[42.594642443000055,15.27632592200007],[42.593218369000056,15.272936986000047],[42.59208271500006,15.274973952000039],[42.59744252100006,15.279675800000064],[42.59976024600007,15.288190161000045],[42.616850433000025,15.303369975000066],[42.620113152000044,15.317163402000062],[42.61811051800004,15.31655586100004],[42.618785563000074,15.31446322100004],[42.61374522400007,15.306115160000047],[42.61088753200005,15.30634017500006],[42.60969495200004,15.308230302000027],[42.613272692000066,15.314170701000023],[42.612237622000066,15.314643233000027],[42.60980861500008,15.310206600000072],[42.607152281000026,15.308567824000022],[42.60550967100005,15.309242870000048],[42.60624409900004,15.31293241800006],[42.61073002100005,15.316150834000041],[42.608299858000066,15.315295776000028],[42.60962744700004,15.317905952000046],[42.608457369000064,15.319211040000027],[42.61011074400005,15.318528577000052],[42.61210261300005,15.321033662000048],[42.615410336000025,15.319526061000033],[42.613563630000044,15.316061311000055],[42.62172271400004,15.324391265000031],[42.618056109000065,15.326099974000044],[42.61962520700007,15.329743050000047],[42.61814143400005,15.333308311000053],[42.61313904800005,15.333088567000061],[42.61027262300007,15.337607133000063],[42.60906584800006,15.337914167000065],[42.60803157700008,15.338589967000075],[42.60731442100007,15.337438932000055],[42.60771489900003,15.33836270300003],[42.60819547400007,15.338768521000077],[42.60636929200007,15.339281133000043],[42.60820615400007,15.339617536000048],[42.61028864200006,15.337839410000072],[42.61214152300005,15.339777727000069],[42.613108993000026,15.338640453000039],[42.61360105700004,15.33961656200006],[42.62049709900003,15.338705444000027],[42.61885448900006,15.341360623000071],[42.61946765400006,15.344561335000037],[42.61831445300004,15.343790786000056],[42.61712187200004,15.34493836300004],[42.61816538000005,15.347962707000022],[42.61495047600005,15.348848704000034],[42.61382399400003,15.347266567000077],[42.613191140000026,15.349177789000066],[42.615266904000066,15.348899333000077],[42.61769706700005,15.35192438000007],[42.61703186700004,15.353871464000065],[42.618684321000046,15.358189645000039],[42.62537992700004,15.364087855000037],[42.62435470200006,15.36629019000003],[42.62777211900004,15.367176187000041],[42.630923738000035,15.370897375000027],[42.62786072000006,15.372188399000038],[42.627848063000044,15.376175385000067],[42.62526601400003,15.376820898000062],[42.623861076000026,15.381845768000062],[42.627468349000026,15.383098821000033],[42.62836700400004,15.379428261000044],[42.63046808300004,15.378909320000048],[42.634086455000045,15.38221412300004],[42.631101568000076,15.385074641000074],[42.63113844000003,15.390906611000048],[42.63914897800004,15.40319243700003],[42.62854420200006,15.403539747000025],[42.62697566000003,15.401144799000065],[42.62182281400004,15.398894648000066],[42.61723250500006,15.398962152000024],[42.61084207500005,15.393134260000068],[42.59605858100008,15.385101220000024],[42.59074822400004,15.379183322000074],[42.59250334200004,15.382851069000026],[42.58564038000003,15.39011905700005],[42.585955401000035,15.392031686000053],[42.58289519500005,15.393471783000052],[42.58190513000005,15.390726598000072],[42.576604617000044,15.388577001000044],[42.57578190500004,15.39189316200003],[42.57173163200008,15.393753755000034],[42.57161771900007,15.395285264000051],[42.57476933700008,15.398993795000024],[42.58201137400005,15.40226891900005],[42.595034938000026,15.400827196000023],[42.60244975400008,15.40332987100004],[42.61190688100004,15.401744435000069],[42.614240650000056,15.406981186000053],[42.61056491800008,15.407737246000067],[42.60762666900007,15.413054076000037],[42.60900389900007,15.414665547000027],[42.61406283300005,15.415222784000036],[42.61782668600006,15.418137742000056],[42.618623583000044,15.421439171000031],[42.61709738300004,15.424589403000027],[42.60866237300007,15.419390007000061],[42.60470546000005,15.412378472000057],[42.595796402000076,15.411009695000075],[42.59120979800008,15.407383636000077],[42.586647208000045,15.41153799500006],[42.588569188000065,15.41728392300007],[42.59238290900004,15.420756117000053],[42.596822762000045,15.421154565000052],[42.59773350200004,15.419617693000077],[42.60288131300007,15.42087529500003],[42.60083522100007,15.424619935000067],[42.602657185000055,15.422732349000057],[42.605987076000076,15.422508222000033],[42.607940185000075,15.430352675000051],[42.61067435500007,15.430009445000053],[42.61298285200007,15.431870675000027],[42.61341529300006,15.437684837000063],[42.618570772000055,15.437616],[42.62545729300007,15.433405384000025],[42.641315966000036,15.441787264000027],[42.64477890200004,15.441078936000054],[42.645668269000055,15.43912031900004],[42.64615620600006,15.44332197500006],[42.643789869000045,15.443645555000046],[42.63960616000003,15.449109990000068],[42.64253586400008,15.454537165000033],[42.636475725000025,15.457055664000052]]],[[[42.50644996500006,15.488724484000045],[42.50456595900005,15.489203468000028],[42.50405504300005,15.48786231300005],[42.50581131900003,15.48655308800005],[42.50775918800008,15.487064005000036],[42.50839783400005,15.488564823000047],[42.50644996500006,15.488724484000045]]],[[[42.510026380000056,15.501337736000039],[42.50367185600004,15.505233474000022],[42.50044669500005,15.505584730000066],[42.48649228700003,15.499389867000048],[42.48214949700008,15.495909247000043],[42.48167,15.49273],[42.48499147000007,15.489905978000024],[42.49680641500004,15.490033707000066],[42.49849882600006,15.492237035000073],[42.485789777000036,15.491885780000075],[42.497157670000036,15.497250403000066],[42.504917214000045,15.498399965000033],[42.51341120200004,15.49543026300006],[42.51267676000003,15.48996984300004],[42.51775399200005,15.492332832000045],[42.52966473500004,15.494184904000065],[42.53419911900005,15.499741121000056],[42.52299088700005,15.497825184000021],[42.510026380000056,15.501337736000039]]],[[[42.37034925000006,15.532385028000022],[42.36647395500006,15.534193499000025],[42.357999978000066,15.532075005000024],[42.35947259000005,15.528277217000038],[42.366499790000034,15.524815287000024],[42.36957419000004,15.521069169000043],[42.37161517900006,15.51027001500006],[42.376136356000075,15.50456041600006],[42.378229015000045,15.498876650000057],[42.37856487400006,15.491797779000024],[42.39148252100006,15.478957637000065],[42.39910774200007,15.473405749000051],[42.40667367400005,15.469450249000033],[42.41153071000008,15.469966955000075],[42.41178906300007,15.473299707000024],[42.409696405000034,15.476606626000034],[42.39551282700006,15.484667237000053],[42.390887742000075,15.489915749000033],[42.38528205000006,15.49234032000004],[42.379184921000046,15.498644133000028],[42.37902990900005,15.508384039000077],[42.37688557900003,15.513034392000066],[42.376239697000074,15.520268275000035],[42.37456040200004,15.52197340400005],[42.375051273000054,15.52360102800003],[42.379184921000046,15.525487005000059],[42.38024416800005,15.529853169000035],[42.37466374400003,15.530137357000058],[42.37034925000006,15.532385028000022]]],[[[41.84263924000004,15.55738874800005],[41.83514078700006,15.556971201000067],[41.82698121900006,15.554135360000032],[41.81925659400008,15.546950067000068],[41.81478535900004,15.538651316000028],[41.815463873000056,15.533031825000023],[41.81882164900003,15.527168766000045],[41.827729324000074,15.523689206000029],[41.834009931000026,15.52602051200006],[41.83564532400004,15.528699773000028],[41.84377009800005,15.529813232000038],[41.84944178100005,15.533553759000029],[41.85213844000003,15.543139949000022],[41.85125115200003,15.550255649000064],[41.84822393500008,15.554396326000074],[41.84263924000004,15.55738874800005]]]]}},{"type":"Feature","id":"15242507B64792839712750","properties":{"kind":"district","shapeId":"15242507B64792839712750","name":"As Salif","cityPcode":"YE18"},"geometry":{"type":"Polygon","coordinates":[[[42.782274046000055,15.204445823000071],[42.78441998100004,15.209205818000044],[42.782978634000074,15.213457048000066],[42.78360187800007,15.216723817000059],[42.78176961300005,15.217885742000021],[42.77717164200004,15.213351547000059],[42.774229511000044,15.206263688000035],[42.775272631000064,15.21030243000007],[42.77283173600006,15.21086950800003],[42.773876329000075,15.211320211000043],[42.77337361900004,15.220359167000026],[42.77489817800006,15.224237429000027],[42.770507888000054,15.232275724000033],[42.77032450200005,15.235578004000047],[42.76473445400006,15.237209549000056],[42.76300007000003,15.241302980000057],[42.76402792700003,15.24282241900005],[42.76295538200003,15.245056889000068],[42.76554736600008,15.246799775000056],[42.76335758600004,15.24845328200007],[42.763178828000036,15.251268713000059],[42.765777574000026,15.257269528000052],[42.76492171500007,15.260206591000042],[42.76631250600008,15.268342637000046],[42.762463798000056,15.269904187000066],[42.75687094300008,15.276099161000047],[42.749863324000046,15.26796818400004],[42.746894446000056,15.267727464000075],[42.74389882300005,15.278131906000056],[42.74087882400005,15.27522222400006],[42.738912491000065,15.269591362000028],[42.738242151000065,15.271602384000062],[42.73658864300006,15.270887354000024],[42.734724726000024,15.273451245000047],[42.73194307600005,15.272648846000038],[42.72520292200005,15.280351877000044],[42.728626492000046,15.295650955000042],[42.719639621000056,15.300786310000035],[42.71721579500007,15.303204762000064],[42.71661248800007,15.307427910000058],[42.703390015000025,15.307704425000054],[42.69853842400005,15.302274665000027],[42.69406389900007,15.299811162000026],[42.69341031700003,15.295613153000033],[42.69286357000004,15.301611656000034],[42.691996317000076,15.295880243000056],[42.68781112200003,15.294126396000024],[42.68580512300008,15.296185888000025],[42.68827455100006,15.304930285000069],[42.68737577700006,15.307205058000022],[42.68877828800004,15.314437005000059],[42.69299996900003,15.326195616000064],[42.69260806200003,15.33678691800003],[42.70108008900007,15.34963500400005],[42.704219170000044,15.360335449000047],[42.70620230500003,15.362350399000036],[42.70140884400007,15.364206274000026],[42.69505946000004,15.362517552000043],[42.69324299300007,15.356888824000066],[42.69100533900007,15.354598144000022],[42.69134469900007,15.350112229000047],[42.689213093000035,15.345149088000028],[42.691366851000055,15.342417503000036],[42.690791380000064,15.331032211000036],[42.68379912600005,15.325874657000043],[42.682396279000045,15.321204076000072],[42.680145261000064,15.319091627000034],[42.68087359100008,15.317938439000045],[42.680073856000035,15.319152322000036],[42.669586725000045,15.315932204000035],[42.67014892200007,15.310337684000046],[42.66796195100005,15.30204542000007],[42.67238267500005,15.299835597000026],[42.67561631600006,15.292506010000068],[42.69101204100008,15.277908590000038],[42.694931688000054,15.26220580100005],[42.69399321100008,15.25845189200004],[42.69059681700003,15.25639618100007],[42.69166936200003,15.265021232000038],[42.69059681700003,15.27391442000004],[42.68946417700005,15.274650464000047],[42.68903997700005,15.270652378000023],[42.68411925600003,15.260630653000021],[42.67944245100006,15.257141607000051],[42.68113925100005,15.253302598000062],[42.67907127600006,15.24701383200005],[42.67397027100003,15.24329147700007],[42.67277190500005,15.239144922000037],[42.66866230200003,15.236021003000076],[42.66002184600006,15.233755126000062],[42.649991872000044,15.23325237000006],[42.631239089000076,15.23571587300006],[42.624275924000074,15.245142540000074],[42.60966458900003,15.25368938500003],[42.604486207000036,15.251879465000059],[42.60068908300008,15.241896355000051],[42.60100016300004,15.237442255000076],[42.59839840300003,15.233921394000049],[42.60075978300006,15.225790893000067],[42.61733186500004,15.209176391000028],[42.61695008500004,15.206305971000063],[42.621237647000044,15.19943943000004],[42.62388182800004,15.19017694300004],[42.62837834800007,15.184591642000044],[42.63633916900005,15.181848482000078],[42.65329303100003,15.181848482000078],[42.66224365200003,15.185765263000064],[42.66668361200004,15.192990803000043],[42.66420970000007,15.204722350000054],[42.66656259700005,15.210348186000033],[42.675060967000036,15.214084746000026],[42.686403133000056,15.215190808000045],[42.701365140000064,15.213380888000074],[42.728755266000064,15.206985837000047],[42.78162541700004,15.188234710000074],[42.782274046000055,15.204445823000071]]]}},{"type":"Feature","id":"15242507B73593637520404","properties":{"kind":"district","shapeId":"15242507B73593637520404","name":"Al Munirah","cityPcode":"YE18"},"geometry":{"type":"MultiPolygon","coordinates":[[[[43.02192,15.36831],[43.02658,15.38404],[43.02586,15.40143],[43.02805,15.40767],[43.03236,15.41023],[43.03773,15.40979],[43.04211,15.421559999000067],[43.04198,15.42994999900003],[43.03719,15.43005],[43.02993,15.42771],[43.02872,15.42196],[43.02234,15.417229999000028],[43.01669,15.39984],[43.00637149900007,15.382551878000072],[43.00348605200003,15.364481785000066],[43.01158,15.3678],[43.02192,15.36831]]],[[[42.778069704000075,15.421847133000028],[42.78187081400006,15.417719220000038],[42.78278864300006,15.397443545000044],[42.78583416600003,15.39256236400007],[42.78311471300003,15.386719721000077],[42.783203042000025,15.38349570400004],[42.78708952900007,15.381243308000023],[42.78827475400004,15.36776741400007],[42.79458074400003,15.365477784000063],[42.79548126700007,15.36401197300006],[42.79362586000008,15.364313329000026],[42.79280333500003,15.362762823000025],[42.794164755000054,15.364105334000044],[42.79777629900008,15.36212938500006],[42.79633924400008,15.362345652000045],[42.79811770400005,15.356391149000046],[42.80530141000003,15.355254387000059],[42.81061944800007,15.34926600800003],[42.81057475800003,15.344931139000039],[42.80110060800007,15.340998472000024],[42.79513581600003,15.334943681000027],[42.793933983000045,15.313424098000041],[42.79855455400008,15.301828845000045],[42.80208611900008,15.295389502000035],[42.80344804200007,15.295695228000056],[42.80307935500008,15.293080898000028],[42.80559313300006,15.293282],[42.80398431500004,15.291706700000077],[42.804758367000034,15.290635534000046],[42.81119047800007,15.288019825000049],[42.814207012000054,15.281349934000048],[42.809816280000064,15.268982147000031],[42.794364924000035,15.253396723000037],[42.78903571500007,15.244749327000022],[42.78524828900004,15.245386151000048],[42.78363947200006,15.243844367000065],[42.785583460000055,15.236571170000047],[42.78122624500003,15.232783744000074],[42.778243229000054,15.236001379000072],[42.77428821700005,15.233454085000062],[42.774858007000034,15.228728182000054],[42.77807941900005,15.226617880000049],[42.77971096400006,15.222177938000073],[42.784382710000045,15.217784060000042],[42.78380320000008,15.214046960000076],[42.78645111700007,15.211425789000032],[42.78626389000004,15.20990123000007],[42.78807081700006,15.209886341000072],[42.78904256900006,15.208226593000063],[42.788091577000046,15.20680010600006],[42.78937541600004,15.197670587000061],[42.786640756000054,15.20425547900004],[42.782274046000055,15.204445823000071],[42.78162541700004,15.188234710000074],[42.82312123600008,15.168482613000037],[42.839240001000064,15.158971733000044],[42.84579134400008,15.153244913000037],[42.86825,15.16417],[42.877011613000036,15.183237364000036],[42.88657877300005,15.193140214000039],[42.89614593400006,15.197504183000035],[42.91763008600003,15.200861082000074],[42.92870785200006,15.205560739000077],[42.92921138600008,15.209421173000067],[42.92635,15.21131],[42.90537740600007,15.213281607000056],[42.89614593400006,15.215631435000034],[42.88892860300007,15.222848767000073],[42.886746619000064,15.231576704000076],[42.88758584300007,15.239297571000066],[42.89563,15.254379999000037],[42.92293,15.277669999000068],[42.92416,15.28138],[42.9356,15.312419999000042],[42.94815,15.3263],[42.95466,15.33507],[42.96139,15.35384],[42.9688,15.35619],[42.98415,15.35047],[42.9896,15.35226],[42.99334,15.35783],[42.98058,15.37401999900004],[42.98406,15.38988],[42.99095,15.39986],[43.00344,15.42648],[43.00239,15.43158],[43.00344,15.43368],[43.00715,15.43787],[43.01657958200008,15.438700290000043],[43.01728,15.48117],[43.02231,15.49914],[43.02839,15.51285],[43.03083,15.52961],[43.03235,15.54716],[43.02425,15.55384],[43.01624,15.55221],[42.94005,15.504949999000075],[42.89741,15.48083],[42.82263,15.42806],[42.778069704000075,15.421847133000028]]]]}},{"type":"Feature","id":"15242507B48405542462206","properties":{"kind":"district","shapeId":"15242507B48405542462206","name":"Al Qanawis","cityPcode":"YE18"},"geometry":{"type":"MultiPolygon","coordinates":[[[[42.92416,15.28138],[42.94529,15.2813],[42.96497,15.28544],[42.97425,15.29107],[42.97435,15.29603],[42.97218,15.3023],[42.96455,15.31334],[42.95213,15.321259999000063],[42.94815,15.3263],[42.9356,15.312419999000042],[42.92416,15.28138]]],[[[43.08279697000006,15.366712303000043],[43.06596723700005,15.365300993000062],[43.06526413800003,15.360247055000059],[43.07021110200003,15.357302937000043],[43.08357357500006,15.361534938000034],[43.08279697000006,15.366712303000043]]],[[[43.22658,15.55821],[43.16533,15.56012],[43.11235,15.55524],[43.08021,15.54286],[43.06625,15.53366],[43.03083,15.52961],[43.02839,15.51285],[43.02231,15.49914],[43.01728,15.48117],[43.01657958200008,15.438700290000043],[43.00715,15.43787],[43.00344,15.43368],[43.00239,15.43158],[43.00344,15.42648],[42.99095,15.39986],[42.98406,15.38988],[42.98058,15.37401999900004],[42.99334,15.35783],[42.9972,15.35832],[43.00348605200003,15.364481785000066],[43.00637149900007,15.382551878000072],[43.01669,15.39984],[43.02234,15.417229999000028],[43.02872,15.42196],[43.02993,15.42771],[43.03719,15.43005],[43.04198,15.42994999900003],[43.04211,15.421559999000067],[43.03773,15.40979],[43.03236,15.41023],[43.02805,15.40767],[43.02586,15.40143],[43.02658,15.38404],[43.02192,15.36831],[43.02647,15.365799999000046],[43.02928,15.36224],[43.03514,15.36488999900007],[43.0466,15.38499],[43.05128,15.38804],[43.05412,15.39674],[43.05878,15.40104],[43.073450001000026,15.40639],[43.07463000100006,15.41127],[43.06859,15.42271],[43.07510999900006,15.4421],[43.081,15.44268],[43.08638,15.44013],[43.10507,15.44548],[43.11317000100007,15.43826],[43.11749725200008,15.436150890000022],[43.11592,15.429990002000068],[43.11167,15.425790001000053],[43.10473,15.42366000100003],[43.10269391500003,15.42020774100007],[43.10350890600006,15.414731121000045],[43.10635390900006,15.410424935000037],[43.115336987000035,15.404314916000033],[43.12673260300005,15.39933837500007],[43.13297385900006,15.400973155000031],[43.13696,15.411470001000055],[43.15277000100008,15.42697],[43.15822,15.43924000100003],[43.20160000100003,15.43821],[43.23022000100008,15.440180001000044],[43.24355702100007,15.437909816000058],[43.25084516800007,15.451865141000042],[43.25114786100005,15.457919029000038],[43.25026089100004,15.463718672000027],[43.245785255000044,15.472427247000041],[43.246933324000054,15.494156804000056],[43.24498059500007,15.509497090000025],[43.22489302200006,15.505761496000048],[43.223340001000054,15.513260001000049],[43.22357,15.53899],[43.22658,15.55821]]]]}},{"type":"Feature","id":"15242507B86244592928099","properties":{"kind":"district","shapeId":"15242507B86244592928099","name":"Al Mighlaf","cityPcode":"YE18"},"geometry":{"type":"Polygon","coordinates":[[[43.24760265000003,15.354413836000049],[43.235461255000075,15.358280595000053],[43.2284,15.36236],[43.19124,15.366140001000076],[43.18258,15.36518],[43.14538,15.36739],[43.12624,15.36395],[43.09567627000007,15.366439915000058],[43.09408,15.35865],[43.09556,15.35191],[43.10880000100008,15.335970001000078],[43.10599,15.332150001000059],[43.1073,15.32565],[43.11865000100005,15.30484],[43.12146,15.28981],[43.13116,15.281070001000046],[43.14190000100007,15.27698],[43.146760001000075,15.27182],[43.14498,15.26029],[43.15112,15.255130001000055],[43.17687,15.25495],[43.23939999900006,15.262710001000073],[43.25664000100005,15.279720001000044],[43.27325950800008,15.292607159000056],[43.262940514000036,15.305017367000062],[43.252041975000054,15.322436026000048],[43.24987276500008,15.330245182000056],[43.24760265000003,15.354413836000049]]]}},{"type":"Feature","id":"15242507B8611350311836","properties":{"kind":"district","shapeId":"15242507B8611350311836","name":"Az Zaydiah","cityPcode":"YE18"},"geometry":{"type":"Polygon","coordinates":[[[43.00348605200003,15.364481785000066],[42.9972,15.35832],[42.99334,15.35783],[42.9896,15.35226],[42.98415,15.35047],[42.9688,15.35619],[42.96139,15.35384],[42.95466,15.33507],[42.94815,15.3263],[42.95213,15.321259999000063],[42.96455,15.31334],[42.97218,15.3023],[42.97435,15.29603],[42.97425,15.29107],[42.96497,15.28544],[42.94529,15.2813],[42.92416,15.28138],[42.92293,15.277669999000068],[42.89563,15.254379999000037],[42.88758584300007,15.239297571000066],[42.886746619000064,15.231576704000076],[42.88892860300007,15.222848767000073],[42.89614593400006,15.215631435000034],[42.90537740600007,15.213281607000056],[42.92635,15.21131],[42.92921138600008,15.209421173000067],[42.92870785200006,15.205560739000077],[42.91763008600003,15.200861082000074],[42.89614593400006,15.197504183000035],[42.88657877300005,15.193140214000039],[42.877011613000036,15.183237364000036],[42.86825,15.16417],[42.87278,15.16421],[42.87448,15.1626],[42.88086,15.16331],[42.88722,15.161419999000032],[42.90203,15.16284],[42.92047,15.15607],[42.93268,15.15531],[42.9518,15.1594],[42.96491,15.15886],[42.97061,15.154689999000027],[42.97767,15.155039999000053],[42.9853,15.15768],[42.98481,15.15951],[43.00066,15.18218],[43.02853,15.213699999000028],[43.0525,15.2243],[43.07421,15.248369999000033],[43.0891,15.25837],[43.10514,15.25954],[43.13193,15.2551],[43.14498,15.26029],[43.146760001000075,15.27182],[43.14190000100007,15.27698],[43.13116,15.281070001000046],[43.12146,15.28981],[43.11865000100005,15.30484],[43.1073,15.32565],[43.10599,15.332150001000059],[43.10880000100008,15.335970001000078],[43.09556,15.35191],[43.09408,15.35865],[43.09567627000007,15.366439915000058],[43.12624,15.36395],[43.14538,15.36739],[43.18258,15.36518],[43.19124,15.366140001000076],[43.2284,15.36236],[43.235461255000075,15.358280595000053],[43.24760265000003,15.354413836000049],[43.25198000100005,15.36194000100005],[43.25185000100004,15.37051],[43.25579000100004,15.3901],[43.25708000100008,15.39114999900005],[43.25054873700003,15.418476335000037],[43.23981616000003,15.430713085000036],[43.24355702100007,15.437909816000058],[43.23022000100008,15.440180001000044],[43.20160000100003,15.43821],[43.15822,15.43924000100003],[43.15277000100008,15.42697],[43.13696,15.411470001000055],[43.13297385900006,15.400973155000031],[43.12673260300005,15.39933837500007],[43.115336987000035,15.404314916000033],[43.10635390900006,15.410424935000037],[43.10350890600006,15.414731121000045],[43.10269391500003,15.42020774100007],[43.10473,15.42366000100003],[43.11167,15.425790001000053],[43.11592,15.429990002000068],[43.11749725200008,15.436150890000022],[43.11317000100007,15.43826],[43.10507,15.44548],[43.08638,15.44013],[43.081,15.44268],[43.07510999900006,15.4421],[43.06859,15.42271],[43.07463000100006,15.41127],[43.073450001000026,15.40639],[43.05878,15.40104],[43.05412,15.39674],[43.05128,15.38804],[43.0466,15.38499],[43.03514,15.36488999900007],[43.02928,15.36224],[43.02647,15.365799999000046],[43.02192,15.36831],[43.01158,15.3678],[43.00348605200003,15.364481785000066]],[[43.08279697000006,15.366712303000043],[43.08357357500006,15.361534938000034],[43.07021110200003,15.357302937000043],[43.06526413800003,15.360247055000059],[43.06596723700005,15.365300993000062],[43.08279697000006,15.366712303000043]]]}},{"type":"Feature","id":"15242507B68430322217319","properties":{"kind":"district","shapeId":"15242507B68430322217319","name":"Ad Dohi","cityPcode":"YE18"},"geometry":{"type":"Polygon","coordinates":[[[43.14498,15.26029],[43.13193,15.2551],[43.10514,15.25954],[43.0891,15.25837],[43.07421,15.248369999000033],[43.0525,15.2243],[43.02853,15.213699999000028],[43.00066,15.18218],[42.98481,15.15951],[42.9853,15.15768],[42.99299,15.15328],[43.00291,15.15085],[43.01186,15.15058],[43.02098,15.15261],[43.03164,15.15974],[43.03702,15.16966],[43.04851,15.17260999900003],[43.05404,15.18903],[43.0655,15.19346],[43.07959,15.19235],[43.09727,15.18647],[43.11356,15.18855],[43.154,15.18556],[43.15705,15.186],[43.16149,15.19002],[43.19045,15.18844],[43.20024,15.19725],[43.22372,15.2076],[43.2285,15.20775],[43.23464,15.21067],[43.23492,15.21382999900004],[43.24066,15.217189999000027],[43.24072,15.22212],[43.25018,15.22536],[43.252350001000025,15.23315],[43.28177000100004,15.21269],[43.286620001000074,15.20292],[43.29326,15.1967],[43.31481000100007,15.19764],[43.32726,15.19287],[43.34050999900006,15.183470001000046],[43.34591000100005,15.173200001000055],[43.35905999900007,15.16216],[43.36844000100007,15.161020001000054],[43.382963311000026,15.16168231100005],[43.402189657000065,15.173457486000075],[43.38525999900003,15.192870001000074],[43.37552696500006,15.195558862000041],[43.37449434800004,15.198189255000045],[43.36965264600008,15.201607399000068],[43.36880878100004,15.208579569000051],[43.359211696000045,15.218150371000036],[43.34374434000006,15.219340798000076],[43.33466713400003,15.223231861000045],[43.322961304000046,15.23396860400004],[43.31061749600008,15.236102102000075],[43.303820001000076,15.24822000100005],[43.28162023200008,15.27509169800004],[43.27325950800008,15.292607159000056],[43.25664000100005,15.279720001000044],[43.23939999900006,15.262710001000073],[43.17687,15.25495],[43.15112,15.255130001000055],[43.14498,15.26029]]]}},{"type":"Feature","id":"15242507B92683143356250","properties":{"kind":"district","shapeId":"15242507B92683143356250","name":"Bajil","cityPcode":"YE18"},"geometry":{"type":"Polygon","coordinates":[[[43.495945007000046,15.048278319000076],[43.48730000100005,15.05433],[43.48018226200003,15.064695019000055],[43.47596217200004,15.068339640000033],[43.457163594000065,15.074286130000075],[43.44622972800005,15.081575374000067],[43.43989959400005,15.089056441000025],[43.43683043900006,15.09692115200005],[43.43432,15.11603000100007],[43.43024158400004,15.131242619000034],[43.421220332000075,15.147203298000022],[43.402189657000065,15.173457486000075],[43.382963311000026,15.16168231100005],[43.36844000100007,15.161020001000054],[43.35905999900007,15.16216],[43.34591000100005,15.173200001000055],[43.34050999900006,15.183470001000046],[43.32726,15.19287],[43.31481000100007,15.19764],[43.29326,15.1967],[43.286620001000074,15.20292],[43.28177000100004,15.21269],[43.252350001000025,15.23315],[43.25018,15.22536],[43.24072,15.22212],[43.24066,15.217189999000027],[43.23492,15.21382999900004],[43.23464,15.21067],[43.2285,15.20775],[43.22372,15.2076],[43.20024,15.19725],[43.19045,15.18844],[43.16149,15.19002],[43.15705,15.186],[43.154,15.18556],[43.11356,15.18855],[43.09727,15.18647],[43.07959,15.19235],[43.0655,15.19346],[43.05404,15.18903],[43.04851,15.17260999900003],[43.03702,15.16966],[43.03164,15.15974],[43.02098,15.15261],[43.01186,15.15058],[43.00291,15.15085],[42.99299,15.15328],[42.9853,15.15768],[42.97767,15.155039999000053],[42.97061,15.154689999000027],[42.96491,15.15886],[42.9518,15.1594],[42.93268,15.15531],[42.92047,15.15607],[42.90203,15.16284],[42.88722,15.161419999000032],[42.88086,15.16331],[42.87448,15.1626],[42.87278,15.16421],[42.86825,15.16417],[42.84579134400008,15.153244913000037],[42.858938280000075,15.137907058000053],[42.86035510800008,15.129287313000077],[42.86725165900003,15.121893506000049],[42.87098880800005,15.112867367000035],[42.87305513500007,15.100484496000036],[42.87024865500007,15.096691599000053],[42.87064190800004,15.091344398000047],[42.863226661000056,15.080353694000053],[42.862179569000034,15.080524963000073],[42.86466821000005,15.084959268000034],[42.86378587400003,15.085830292000026],[42.86657993800003,15.087583653000024],[42.86549398600005,15.087821204000022],[42.86913405300004,15.096224042000074],[42.86775715300007,15.095397903000048],[42.87033907700004,15.101639188000036],[42.869267371000035,15.103345670000067],[42.87013887200004,15.10586227300007],[42.86773748300004,15.10305717700004],[42.864910801000065,15.089403385000026],[42.86034293500006,15.079355212000053],[42.86407153600004,15.077323768000042],[42.86798870800004,15.072129442000062],[42.866168695000056,15.062490796000077],[42.866512983000064,15.042987787000072],[42.87163302300007,15.034964868000031],[42.87030094900007,15.023816210000064],[42.88444683100005,15.002449170000034],[42.89404690600003,15.000270106000073],[42.89867932300007,14.994631966000043],[42.90818796900004,14.990431934000071],[42.91011941200003,14.988317632000076],[42.90857654300004,14.986546189000023],[42.91077084600005,14.988477633000059],[42.90870225800006,14.985849041000051],[42.910062269000036,14.987391910000042],[42.91136513600003,14.986923335000029],[42.916873750000036,14.98120900500004],[42.91779947200007,14.977311832000055],[42.92618364500004,14.96617130900006],[42.930192989000034,14.956202130000065],[42.93048195000006,14.949086449000049],[42.92844316600008,14.94487844400004],[42.93434681300005,14.941501205000066],[42.936261185000035,14.93825038600005],[42.935972065000044,14.935012065000024],[42.93887354300006,14.934564521000027],[42.94411131100003,14.925229050000041],[42.94501030200007,14.922018364000053],[42.94398288300005,14.919578244000036],[42.94662211700006,14.915803613000037],[42.94820739900007,14.89610082200005],[42.94568554600005,14.892284602000075],[42.945315306000055,14.888767316000042],[42.94874003100006,14.885712832000024],[42.95160939500005,14.878863382000077],[42.953645719000065,14.871253203000038],[42.95204307600005,14.869069463000073],[42.952448222000044,14.865682239000023],[42.94890779600007,14.86385996100006],[42.94776236400003,14.859694755000078],[42.946668998000064,14.859694755000078],[42.94682519300005,14.861360838000053],[42.93984847300004,14.866463216000056],[42.94174982800007,14.872344573000078],[42.94120216400006,14.875001888000043],[42.935995656000046,14.874116782000044],[42.934641965000026,14.878229923000049],[42.937922065000066,14.878125793000038],[42.93542294100007,14.878854704000048],[42.928498286000035,14.87651177600003],[42.93045508000006,14.874711029000025],[42.931674255000075,14.876407645000029],[42.934641964000036,14.875106018000054],[42.93729728300008,14.867712778000055],[42.94312857300008,14.86276659500004],[42.943852425000046,14.849849107000068],[42.950249711000026,14.849458303000063],[42.95252,14.85157],[42.9706,14.85409],[42.97349,14.85263],[42.98969,14.86853],[43.02268,14.88631],[43.044230001000074,14.90556],[43.04534,14.90512],[43.07612000100005,14.928920001000051],[43.09711,14.939340001000062],[43.11022000100007,14.9438],[43.125770001000035,14.946900001000074],[43.1413,14.953],[43.14983,14.957160001000034],[43.16017,14.96715000100005],[43.17177802700007,14.969400779000068],[43.18432,14.96219],[43.196420001000035,14.962120001000073],[43.2357,14.97371],[43.24519,14.97861],[43.27757,14.98483],[43.29298,14.98435],[43.31376000100005,14.97993],[43.33663,14.979500001000076],[43.33933,14.972840001000066],[43.35566000100005,14.97303],[43.36079,14.96897],[43.36923,14.96897],[43.37474,14.97108],[43.38056000100005,14.97044],[43.38397000100008,14.972090001000026],[43.39454,14.967220001000044],[43.40133,14.96595],[43.41301,14.97125],[43.4272,14.973650001000067],[43.43380999900006,14.978830001000063],[43.43789,14.975909999000066],[43.4429,14.97478],[43.44739,14.97701999900005],[43.45263,14.97633],[43.4602,14.98013],[43.46363000100007,14.97978],[43.47632,14.98358],[43.48267000100003,14.98715],[43.49773,14.999940001000027],[43.50138,15.015869999000074],[43.502240001000075,15.02937],[43.495945007000046,15.048278319000076]]]}},{"type":"Feature","id":"15242507B60755531991601","properties":{"kind":"district","shapeId":"15242507B60755531991601","name":"Bura'","cityPcode":"YE18"},"geometry":{"type":"Polygon","coordinates":[[[43.49773,14.999940001000027],[43.48267000100003,14.98715],[43.47632,14.98358],[43.46363000100007,14.97978],[43.4602,14.98013],[43.45263,14.97633],[43.44739,14.97701999900005],[43.4429,14.97478],[43.43789,14.975909999000066],[43.43380999900006,14.978830001000063],[43.4272,14.973650001000067],[43.41301,14.97125],[43.40133,14.96595],[43.40145,14.96088],[43.40281,14.95866],[43.40476,14.95876],[43.4052,14.95689],[43.40159,14.95353],[43.39926,14.94716],[43.39301,14.939519999000026],[43.39242,14.927809999000033],[43.39449,14.92619],[43.39629,14.91713],[43.39163,14.9157],[43.38988,14.91882],[43.38709,14.91985],[43.37875,14.9166],[43.38033,14.9067],[43.38505,14.89759],[43.39185,14.89463],[43.39196,14.890839999000036],[43.40316,14.88796],[43.4066,14.883609999000043],[43.40677,14.879660001000047],[43.40310000100004,14.880080001000067],[43.40249000100005,14.876750001000062],[43.39530000100007,14.87348],[43.39442,14.870260001000076],[43.39536,14.865],[43.40171,14.85979],[43.40263,14.85746],[43.40118,14.85043],[43.40205000100008,14.84884],[43.40069,14.842070001000025],[43.402400001000046,14.838430001000063],[43.42109525500007,14.817970573000025],[43.42742997400006,14.816751557000032],[43.43231624400005,14.813944531000061],[43.43815745000006,14.813668627000027],[43.447539937000045,14.817203625000047],[43.462625365000065,14.817147048000038],[43.46421730800006,14.821418247000054],[43.47241648000005,14.818333492000022],[43.473238808000076,14.815827802000058],[43.47933715000005,14.81819316700006],[43.48482751200004,14.832152324000049],[43.49948143600005,14.839543664000075],[43.50144871400005,14.845707421000043],[43.500057155000036,14.848463877000029],[43.50188073400005,14.854149880000023],[43.50030848500006,14.861768667000035],[43.50417893200006,14.869232239000041],[43.50542672000006,14.876144380000028],[43.51126911600005,14.880609107000055],[43.51873659700004,14.883656225000038],[43.525037456000064,14.885553223000045],[43.53018607400003,14.88415829400003],[43.53792000100003,14.88764],[43.54208,14.89022],[43.54469000100005,14.894949999000062],[43.5517,14.900340001000075],[43.56715,14.90850000100005],[43.5713,14.93214],[43.57,14.94661],[43.55661000100008,14.95288],[43.548759999000026,14.963250001000063],[43.54164,14.968700001000059],[43.53448,14.9841],[43.49773,14.999940001000027]]]}},{"type":"Feature","id":"15242507B52368246204480","properties":{"kind":"district","shapeId":"15242507B52368246204480","name":"Al Marawi'ah","cityPcode":"YE18"},"geometry":{"type":"Polygon","coordinates":[[[42.97349,14.85263],[42.9782,14.8368],[42.97869,14.82304],[42.9805,14.818459999000027],[42.99414,14.8036],[43.00191,14.79736],[43.02796,14.78414],[43.03528,14.78451],[43.05931,14.79071],[43.07351,14.79885],[43.06723763000008,14.814084036000054],[43.067660068000066,14.81739284300005],[43.06954024300006,14.818935802000055],[43.074052745000074,14.818166157000064],[43.07536,14.81605],[43.07455,14.80776],[43.08386,14.801839999000038],[43.09758,14.80384],[43.11343,14.77681],[43.12492,14.76999],[43.12991,14.75893],[43.12356,14.737699999000029],[43.12052,14.71172],[43.12878,14.69961],[43.14807,14.71298],[43.15594,14.7156],[43.16605,14.71636],[43.16667,14.72558],[43.16987,14.73702],[43.17707,14.75069],[43.18139,14.75181],[43.18532,14.75682],[43.19768,14.76413],[43.23917,14.76878],[43.24606,14.77222],[43.25389,14.77888],[43.25818,14.79355],[43.26181,14.79912],[43.27024,14.80366],[43.28514,14.8198],[43.29073,14.82002],[43.30779,14.815199999000072],[43.32304000100004,14.820620001000066],[43.32494,14.82715999900006],[43.33016,14.83187],[43.33798000100006,14.83408999900007],[43.33671,14.83776],[43.36213000200007,14.846990001000052],[43.366797648000045,14.851249203000066],[43.39,14.849410001000024],[43.40118,14.85043],[43.40263,14.85746],[43.40171,14.85979],[43.39536,14.865],[43.39442,14.870260001000076],[43.39530000100007,14.87348],[43.40249000100005,14.876750001000062],[43.40310000100004,14.880080001000067],[43.40677,14.879660001000047],[43.4066,14.883609999000043],[43.40316,14.88796],[43.39196,14.890839999000036],[43.39185,14.89463],[43.38505,14.89759],[43.38033,14.9067],[43.37875,14.9166],[43.38709,14.91985],[43.38988,14.91882],[43.39163,14.9157],[43.39629,14.91713],[43.39449,14.92619],[43.39242,14.927809999000033],[43.39301,14.939519999000026],[43.39926,14.94716],[43.40159,14.95353],[43.4052,14.95689],[43.40476,14.95876],[43.40281,14.95866],[43.40145,14.96088],[43.40133,14.96595],[43.39454,14.967220001000044],[43.38397000100008,14.972090001000026],[43.38056000100005,14.97044],[43.37474,14.97108],[43.36923,14.96897],[43.36079,14.96897],[43.35566000100005,14.97303],[43.33933,14.972840001000066],[43.33663,14.979500001000076],[43.31376000100005,14.97993],[43.29298,14.98435],[43.27757,14.98483],[43.24519,14.97861],[43.2357,14.97371],[43.196420001000035,14.962120001000073],[43.18432,14.96219],[43.17177802700007,14.969400779000068],[43.16017,14.96715000100005],[43.14983,14.957160001000034],[43.1413,14.953],[43.125770001000035,14.946900001000074],[43.11022000100007,14.9438],[43.09711,14.939340001000062],[43.07612000100005,14.928920001000051],[43.04534,14.90512],[43.044230001000074,14.90556],[43.02268,14.88631],[42.98969,14.86853],[42.97349,14.85263]]]}},{"type":"Feature","id":"15242507B99708697665736","properties":{"kind":"district","shapeId":"15242507B99708697665736","name":"As Sukhnah","cityPcode":"YE18"},"geometry":{"type":"Polygon","coordinates":[[[43.40118,14.85043],[43.39,14.849410001000024],[43.366797648000045,14.851249203000066],[43.36213000200007,14.846990001000052],[43.33671,14.83776],[43.33798000100006,14.83408999900007],[43.33016,14.83187],[43.32494,14.82715999900006],[43.32304000100004,14.820620001000066],[43.30779,14.815199999000072],[43.29073,14.82002],[43.28514,14.8198],[43.27024,14.80366],[43.26181,14.79912],[43.25818,14.79355],[43.25389,14.77888],[43.24606,14.77222],[43.23917,14.76878],[43.19768,14.76413],[43.18532,14.75682],[43.18139,14.75181],[43.17707,14.75069],[43.16987,14.73702],[43.16667,14.72558],[43.16605,14.71636],[43.213585282000054,14.685670878000053],[43.23164,14.67976],[43.23504,14.67978],[43.240708906000066,14.669576695000046],[43.24287,14.65613],[43.24981,14.65481],[43.25277,14.64276],[43.25544,14.64089],[43.26452,14.64009],[43.27681,14.64961],[43.28363,14.64829],[43.28314,14.65688],[43.27890000100007,14.67226],[43.25983,14.71148000100004],[43.260380001000044,14.71719],[43.26446000100003,14.720070001000067],[43.27793,14.72189],[43.293896741000026,14.730482344000052],[43.31538,14.73015],[43.32595999900008,14.726800001000072],[43.351270001000046,14.72367],[43.36696000100005,14.71621],[43.3752,14.70821],[43.39299,14.717599999000072],[43.39814000100006,14.717039999000065],[43.41276000100004,14.721140001000038],[43.42142000100006,14.739450001000023],[43.42726,14.742920001000073],[43.435459999000045,14.744689999000059],[43.441320001000065,14.744150001000037],[43.44721000100003,14.74134],[43.45310999900005,14.73567],[43.46318000100007,14.72034],[43.47083,14.71753],[43.472600001000046,14.71469],[43.47161,14.704570001000036],[43.476060001000064,14.69712000100003],[43.48035000100003,14.69896],[43.48674,14.706000001000064],[43.51157000100005,14.71812],[43.514,14.72115],[43.51371,14.7292],[43.51157,14.7363],[43.49704,14.756299999000078],[43.48190121600004,14.798112767000077],[43.473205576000055,14.81190635400003],[43.473238808000076,14.815827802000058],[43.47241648000005,14.818333492000022],[43.46421730800006,14.821418247000054],[43.462625365000065,14.817147048000038],[43.447539937000045,14.817203625000047],[43.43815745000006,14.813668627000027],[43.43231624400005,14.813944531000061],[43.42742997400006,14.816751557000032],[43.42109525500007,14.817970573000025],[43.402400001000046,14.838430001000063],[43.40069,14.842070001000025],[43.40205000100008,14.84884],[43.40118,14.85043]]]}},{"type":"Feature","id":"15242507B31078710685035","properties":{"kind":"district","shapeId":"15242507B31078710685035","name":"Al Mansuriyah","cityPcode":"YE18"},"geometry":{"type":"Polygon","coordinates":[[[43.28363,14.64829],[43.30141,14.64868000100006],[43.32105000100006,14.639800001000026],[43.34830000100004,14.64682],[43.37025,14.64697],[43.38267,14.65532],[43.39174,14.64961],[43.39707,14.64291],[43.40431,14.639],[43.41632,14.63601],[43.4194,14.63653],[43.42006,14.6265],[43.422,14.62553],[43.42442,14.62577],[43.43315,14.63377],[43.44212,14.63692],[43.45487,14.65033],[43.48492,14.65297],[43.483100001000025,14.66117],[43.47765,14.67208],[43.477039999000056,14.686010001000056],[43.47909,14.693200001000037],[43.476060001000064,14.69712000100003],[43.47161,14.704570001000036],[43.472600001000046,14.71469],[43.47083,14.71753],[43.46318000100007,14.72034],[43.45310999900005,14.73567],[43.44721000100003,14.74134],[43.441320001000065,14.744150001000037],[43.435459999000045,14.744689999000059],[43.42726,14.742920001000073],[43.42142000100006,14.739450001000023],[43.41276000100004,14.721140001000038],[43.39814000100006,14.717039999000065],[43.39299,14.717599999000072],[43.3752,14.70821],[43.36696000100005,14.71621],[43.351270001000046,14.72367],[43.32595999900008,14.726800001000072],[43.31538,14.73015],[43.293896741000026,14.730482344000052],[43.27793,14.72189],[43.26446000100003,14.720070001000067],[43.260380001000044,14.71719],[43.25983,14.71148000100004],[43.27890000100007,14.67226],[43.28314,14.65688],[43.28363,14.64829]]]}},{"type":"Feature","id":"15242507B83737515314147","properties":{"kind":"district","shapeId":"15242507B83737515314147","name":"Bayt Al Faqih","cityPcode":"YE18"},"geometry":{"type":"Polygon","coordinates":[[[43.010584304000076,14.379173023000021],[43.020523472000036,14.362134448000063],[43.03170503600006,14.334269280000058],[43.034722284000054,14.320247953000035],[43.03599578400008,14.296300874000053],[43.04493877300007,14.280197319000024],[43.050529555000026,14.264423327000031],[43.055390001000035,14.26455],[43.11351,14.27814],[43.12507000100004,14.280830001000027],[43.14054000100003,14.3051],[43.15122,14.31081000100005],[43.1936,14.31912999900004],[43.20128000100004,14.319210001000044],[43.20929,14.317150001000073],[43.233260001000076,14.317330001000073],[43.24709,14.321879999000032],[43.25825000100008,14.32032],[43.26786,14.322770001000038],[43.27566000100006,14.32709],[43.28574,14.33904],[43.29222000100003,14.33976],[43.30849000100005,14.335300001000064],[43.32375,14.33789],[43.33227,14.3433],[43.33889,14.35203],[43.34386,14.35528],[43.34596,14.35937],[43.351060001000064,14.36238],[43.36308000100007,14.36572],[43.37093,14.365780001000076],[43.40868,14.37312],[43.41592,14.376000001000023],[43.44826000100005,14.38133],[43.45613,14.38387],[43.46588000100007,14.384390001000043],[43.47285,14.382850001000065],[43.47823,14.376129999000057],[43.480864593000035,14.378415593000057],[43.49108103300006,14.376704559000075],[43.49564837500003,14.378865319000056],[43.49805621200005,14.376951947000066],[43.50377000100008,14.37812000100007],[43.50670691200003,14.375788580000062],[43.51171276200006,14.374652752000031],[43.51640374900006,14.37655010800006],[43.521394282000074,14.388409730000035],[43.53394718800007,14.398513170000058],[43.549190003000035,14.421157866000044],[43.54919,14.434890001000042],[43.54799,14.44355],[43.541112697000074,14.465015167000047],[43.53005,14.49432],[43.52270000100003,14.5204],[43.5109,14.55283],[43.50764000100003,14.578050001000065],[43.50929,14.59355],[43.50210550700007,14.593480864000071],[43.49319,14.598550001000035],[43.485250001000054,14.608830001000058],[43.48117,14.6171],[43.48002000100007,14.619940001000032],[43.48371,14.63452],[43.48492,14.65297],[43.45487,14.65033],[43.44212,14.63692],[43.43315,14.63377],[43.42442,14.62577],[43.422,14.62553],[43.42006,14.6265],[43.4194,14.63653],[43.41632,14.63601],[43.40431,14.639],[43.39707,14.64291],[43.39174,14.64961],[43.38267,14.65532],[43.37025,14.64697],[43.34830000100004,14.64682],[43.32105000100006,14.639800001000026],[43.30141,14.64868000100006],[43.28363,14.64829],[43.27681,14.64961],[43.26452,14.64009],[43.25544,14.64089],[43.25277,14.64276],[43.24981,14.65481],[43.24287,14.65613],[43.23968,14.63582],[43.24636,14.63588],[43.23937,14.60158],[43.24106,14.5879],[43.23865,14.58754],[43.23258,14.577939999000023],[43.21633,14.57106],[43.14423,14.56727],[43.13392,14.56046],[43.1044,14.51972],[43.07856,14.459020001000056],[43.05148,14.412040001000037],[43.03117,14.39076],[43.010584304000076,14.379173023000021]]]}},{"type":"Feature","id":"15242507B55114277387494","properties":{"kind":"district","shapeId":"15242507B55114277387494","name":"Jabal Ras","cityPcode":"YE18"},"geometry":{"type":"Polygon","coordinates":[[[43.75066835600006,14.105041475000064],[43.73092,14.08486],[43.71884,14.07459],[43.70541,14.06817],[43.69289,14.06629],[43.67896,14.06667],[43.67544416900006,14.071003165000036],[43.66126,14.07699],[43.64353,14.0914],[43.62859,14.10581],[43.60201,14.12424],[43.58583,14.13156],[43.56965,14.1292],[43.56533,14.13078],[43.56005,14.13039],[43.5523,14.12848],[43.54208,14.12977],[43.53802478000006,14.132953130000033],[43.53184,14.13243],[43.52159,14.13917],[43.51222,14.151339999000072],[43.50437711300003,14.152851355000053],[43.50364,14.144339999000067],[43.505,14.13683],[43.49681,14.127609999000072],[43.49544,14.119419999000058],[43.49203,14.116689999000073],[43.48361,14.113499999000055],[43.47913,14.10129],[43.4787,14.09449],[43.48574,14.0823],[43.49046,14.0701],[43.49590322200004,14.032397905000039],[43.51392521300005,14.034561578000023],[43.537785384000074,14.032576150000068],[43.54799,14.00112],[43.55328,13.97305],[43.55841,13.96856],[43.57281,13.96636],[43.57656,13.964149999000028],[43.57665,13.96128],[43.59278,13.96241],[43.60069999900003,13.95747],[43.60629000100005,13.94554],[43.61027,13.921610001000033],[43.610106709000036,13.907325359000026],[43.61771173400007,13.907666797000047],[43.62258295600003,13.912746312000024],[43.62494672500003,13.91315588200007],[43.63323628900008,13.911815657000034],[43.639410404000046,13.913831351000056],[43.644938394000064,13.910725264000064],[43.65448220700006,13.91033118200005],[43.65564360500008,13.91250152400005],[43.657437206000054,13.912148186000024],[43.65874387500003,13.914169583000046],[43.661885211000026,13.914583078000021],[43.66801359800007,13.919831652000028],[43.67748000100005,13.91848],[43.68586000100004,13.9149],[43.68866000100007,13.910380001000021],[43.70022000100005,13.90688],[43.70813163100007,13.907288151000046],[43.71050289400006,13.91081004700004],[43.71016803800006,13.922598100000073],[43.70619000100004,13.92951000100004],[43.68250000100005,13.933910001000072],[43.67085,13.94246],[43.65166,13.96772],[43.65273,13.98103],[43.66078,13.998590001000025],[43.66968,14.00389],[43.67879,14.00552],[43.68712505000008,14.003196081000056],[43.691821090000076,13.992996867000045],[43.70124,13.98522],[43.70666672900006,13.975595977000069],[43.70503800100005,13.95845361000005],[43.70548590100003,13.95674344500003],[43.70849904800008,13.956051236000064],[43.71175650600003,13.959634438000023],[43.714189299000054,13.969075129000032],[43.71799916900005,13.971752335000076],[43.72038876600004,13.968796036000072],[43.72161031300004,13.969243935000065],[43.73165,14.02089],[43.73597,14.0309],[43.74485,14.04285],[43.75366,14.05025],[43.76866,14.04811],[43.77329,14.04993999900006],[43.77696,14.05722],[43.77451,14.06848],[43.75697866100006,14.092494239000075],[43.75066835600006,14.105041475000064]]]}},{"type":"Feature","id":"15242507B19229428361360","properties":{"kind":"district","shapeId":"15242507B19229428361360","name":"Al Hawak","cityPcode":"YE18"},"geometry":{"type":"Polygon","coordinates":[[[42.99521,14.72244],[42.99082,14.7294],[42.97904,14.77599],[42.95914,14.79343],[42.95167,14.7971],[42.94843,14.79867],[42.94545,14.79565],[42.94655,14.79271],[42.94479,14.79173],[42.94777,14.78616],[42.946472964000066,14.785025458000064],[42.94720453800005,14.783321596000064],[42.94530802200006,14.78207724200007],[42.94752938000005,14.783321862000037],[42.94753769700003,14.781461312000033],[42.946341209000025,14.780716528000028],[42.94461550800003,14.782220751000068],[42.94804410100005,14.777977934000035],[42.94935678100006,14.768021839000028],[42.95390553100003,14.760552904000065],[42.95201291600006,14.746797136000055],[42.95076071600005,14.744476285000076],[42.948664173000054,14.74397710900007],[42.95185890500005,14.738785668000048],[42.94896367900003,14.735690771000066],[42.95265758800008,14.72880212900003],[42.951958741000055,14.72740443300006],[42.95405528400005,14.722911840000052],[42.95265758800008,14.718019906000052],[42.95661035300003,14.706337543000075],[42.96281,14.70579],[42.99521,14.72244]]]}},{"type":"Feature","id":"15242507B27528285733897","properties":{"kind":"district","shapeId":"15242507B27528285733897","name":"Al Mina","cityPcode":"YE18"},"geometry":{"type":"MultiPolygon","coordinates":[[[[42.95167,14.7971],[42.95895,14.80733],[42.95427,14.810769999000058],[42.94805,14.81189],[42.94831,14.81401],[42.94435,14.81245],[42.94497,14.81642],[42.94252,14.8179],[42.9429,14.82835],[42.93617788500006,14.834816189000037],[42.933498161000045,14.832334149000076],[42.934091214000034,14.831323762000068],[42.93305886100006,14.832224325000027],[42.932587022000064,14.827314886000067],[42.938904251000054,14.825371123000025],[42.93900404300007,14.819581052000046],[42.93512541200005,14.813921502000028],[42.92946311700007,14.811834202000057],[42.92485300200008,14.815202664000026],[42.92495081000004,14.821761278000054],[42.92675573300005,14.823843881000073],[42.93300354200005,14.824815762000071],[42.93035717200007,14.827238280000074],[42.92950053900006,14.83246593900003],[42.923613930000045,14.836551421000024],[42.92306480700006,14.845095788000037],[42.91911111400003,14.844963999000072],[42.915662617000066,14.848061057000052],[42.91568458200004,14.852234399000054],[42.91277463200004,14.853446946000076],[42.91168126500003,14.856779111000037],[42.91126474500004,14.863339310000072],[42.91334734700007,14.868181363000076],[42.923343842000065,14.873960587000056],[42.90892181600003,14.869118534000052],[42.907255734000046,14.859069974000022],[42.90381943800003,14.85808073800007],[42.90569378200007,14.85672704600006],[42.90564171600005,14.854748573000052],[42.901632705000054,14.848240438000062],[42.89959059700004,14.847300374000042],[42.89332507100005,14.848305339000035],[42.891452482000034,14.861832867000032],[42.889316421000046,14.867015684000023],[42.884595854000054,14.872661852000022],[42.88302233200005,14.879326183000046],[42.88441073400003,14.882750908000048],[42.88320745200008,14.895061406000025],[42.88968666200003,14.899596852000059],[42.90308802900006,14.901031072000023],[42.886273507000055,14.901491443000054],[42.88606524700003,14.90388643700004],[42.88840817500005,14.90607317000007],[42.88187400800007,14.909572920000073],[42.87679766300005,14.90966566000003],[42.87610454600008,14.91323374500007],[42.886706298000036,14.91554738700006],[42.88694059000005,14.911271543000055],[42.88869778700007,14.909104333000073],[42.88691130400008,14.915576673000032],[42.89153208000005,14.915913469000031],[42.891948600000035,14.913310215000024],[42.89218289300004,14.916718851000041],[42.88313333100007,14.915459528000042],[42.880129828000065,14.917006836000041],[42.87955711200004,14.916277925000031],[42.88222544800004,14.915342381000073],[42.87898439600008,14.915861405000044],[42.87882820100003,14.91934976500005],[42.884815684000046,14.91825639800004],[42.88117112900005,14.923723231000054],[42.87632907700004,14.923410841000077],[42.87330930200005,14.921119977000046],[42.869248226000025,14.911331743000062],[42.86881218100007,14.891942382000025],[42.874581643000056,14.881633497000053],[42.88117112900005,14.859258530000034],[42.885876394000036,14.852340265000066],[42.91674622100004,14.826414594000028],[42.92006537000003,14.820440126000051],[42.920296775000054,14.811795019000044],[42.924187189000065,14.810098700000026],[42.93966602300003,14.796989660000065],[42.94092823100004,14.790831042000036],[42.94645715200005,14.785240503000068],[42.94397314100007,14.785396881000054],[42.94484999900004,14.78424],[42.946472964000066,14.785025458000064],[42.94777,14.78616],[42.94479,14.79173],[42.94655,14.79271],[42.94545,14.79565],[42.94843,14.79867],[42.95167,14.7971]]],[[[42.92178,14.94164],[42.92335,14.94634],[42.92231,14.94999],[42.91761,14.95156],[42.91396,14.94686],[42.91396,14.94269],[42.91866,14.94008],[42.92178,14.94164]]]]}},{"type":"Feature","id":"15242507B48725764908659","properties":{"kind":"district","shapeId":"15242507B48725764908659","name":"Al Hali","cityPcode":"YE18"},"geometry":{"type":"Polygon","coordinates":[[[42.943852425000046,14.849849107000068],[42.94036261000008,14.843829924000033],[42.93544040200004,14.84028956000003],[42.93884436400003,14.836879287000045],[42.93617788500006,14.834816189000037],[42.9429,14.82835],[42.94252,14.8179],[42.94497,14.81642],[42.94435,14.81245],[42.94831,14.81401],[42.94805,14.81189],[42.95427,14.810769999000058],[42.95895,14.80733],[42.95167,14.7971],[42.95914,14.79343],[42.97904,14.77599],[42.99082,14.7294],[42.99521,14.72244],[43.03664,14.74276],[43.05035,14.7601],[43.05931,14.79071],[43.03528,14.78451],[43.02796,14.78414],[43.00191,14.79736],[42.99414,14.8036],[42.9805,14.818459999000027],[42.97869,14.82304],[42.9782,14.8368],[42.97349,14.85263],[42.9706,14.85409],[42.95252,14.85157],[42.950249711000026,14.849458303000063],[42.943852425000046,14.849849107000068]]]}},{"type":"Feature","id":"15242507B385493666548","properties":{"kind":"district","shapeId":"15242507B385493666548","name":"Zabid","cityPcode":"YE18"},"geometry":{"type":"Polygon","coordinates":[[[43.11351,14.27814],[43.12039,14.26159],[43.26502,14.21928],[43.29575,14.21443],[43.29596,14.19925],[43.30149,14.18739],[43.30066898300004,14.173961051000049],[43.31144,14.16635],[43.31757,14.16809],[43.34063,14.16234],[43.34721,14.16356],[43.34740162800006,14.170602463000023],[43.36852,14.17292],[43.370721710000055,14.17443113400003],[43.38554,14.16851],[43.3875,14.170189999000058],[43.40369,14.16681],[43.40535377500004,14.16433736700003],[43.40987856700008,14.162597062000032],[43.45579,14.16443],[43.45253,14.18305],[43.44602,14.18356],[43.44275,14.19245],[43.44801,14.1954],[43.45039,14.20043],[43.47593,14.21601],[43.47208,14.248519999000052],[43.48304148500006,14.27458138000003],[43.499917664000066,14.304719141000078],[43.48529000100007,14.328400001000034],[43.47963,14.34081],[43.47631000200005,14.358730001000026],[43.47823,14.376129999000057],[43.47285,14.382850001000065],[43.46588000100007,14.384390001000043],[43.45613,14.38387],[43.44826000100005,14.38133],[43.41592,14.376000001000023],[43.40868,14.37312],[43.37093,14.365780001000076],[43.36308000100007,14.36572],[43.351060001000064,14.36238],[43.34596,14.35937],[43.34386,14.35528],[43.33889,14.35203],[43.33227,14.3433],[43.32375,14.33789],[43.30849000100005,14.335300001000064],[43.29222000100003,14.33976],[43.28574,14.33904],[43.27566000100006,14.32709],[43.26786,14.322770001000038],[43.25825000100008,14.32032],[43.24709,14.321879999000032],[43.233260001000076,14.317330001000073],[43.20929,14.317150001000073],[43.20128000100004,14.319210001000044],[43.1936,14.31912999900004],[43.15122,14.31081000100005],[43.14054000100003,14.3051],[43.12507000100004,14.280830001000027],[43.11351,14.27814]]]}},{"type":"Feature","id":"15242507B33824576617573","properties":{"kind":"district","shapeId":"15242507B33824576617573","name":"Al Jarrahi","cityPcode":"YE18"},"geometry":{"type":"Polygon","coordinates":[[[43.49590322200004,14.032397905000039],[43.49046,14.0701],[43.48574,14.0823],[43.4787,14.09449],[43.47913,14.10129],[43.48361,14.113499999000055],[43.49203,14.116689999000073],[43.49544,14.119419999000058],[43.49681,14.127609999000072],[43.505,14.13683],[43.50364,14.144339999000067],[43.50437711300003,14.152851355000053],[43.51222,14.151339999000072],[43.52159,14.13917],[43.53184,14.13243],[43.53802478000006,14.132953130000033],[43.53530436400007,14.139674261000039],[43.51899156200005,14.161129523000056],[43.51053526100003,14.164281238000058],[43.50484378500005,14.169099052000035],[43.49898103800007,14.182534246000046],[43.500498511000046,14.203908970000043],[43.50444895600003,14.203152716000034],[43.507282100000054,14.207103175000043],[43.51016072200008,14.208487826000066],[43.51495707500004,14.20517060000003],[43.522799622000036,14.20603731600005],[43.524722283000074,14.209359049000057],[43.52840961900006,14.210980917000029],[43.53125634600008,14.21569444100004],[43.531613081000046,14.219489975000045],[43.527996391000045,14.22459989400005],[43.52865781700007,14.228434493000066],[43.526060001000076,14.243],[43.51768000100003,14.25556],[43.51963000100005,14.262590001000035],[43.52411,14.26884],[43.52451,14.278800001000036],[43.51963000100005,14.284660001000077],[43.51299000100005,14.28817],[43.50733000100007,14.302440001000036],[43.499917664000066,14.304719141000078],[43.48304148500006,14.27458138000003],[43.47208,14.248519999000052],[43.47593,14.21601],[43.45039,14.20043],[43.44801,14.1954],[43.44275,14.19245],[43.44602,14.18356],[43.45253,14.18305],[43.45579,14.16443],[43.40987856700008,14.162597062000032],[43.40535377500004,14.16433736700003],[43.40369,14.16681],[43.3875,14.170189999000058],[43.38554,14.16851],[43.370721710000055,14.17443113400003],[43.36852,14.17292],[43.34740162800006,14.170602463000023],[43.34721,14.16356],[43.34063,14.16234],[43.31757,14.16809],[43.31144,14.16635],[43.30066898300004,14.173961051000049],[43.29845222700004,14.170080863000067],[43.29047,14.16784],[43.29171,14.1638],[43.28978,14.15399],[43.28987,14.14223],[43.28038,14.1353],[43.27594,14.12498],[43.28636,13.90326],[43.3065,13.90431],[43.34023,13.91137],[43.35554,13.92316],[43.36026,13.92316],[43.36614,13.92004],[43.38533,13.94233],[43.38651,13.94619],[43.39484,13.96815],[43.40112,13.97732],[43.40779,13.980060001000027],[43.41213000100004,13.972609999000042],[43.426090001000034,13.97858],[43.41854000100005,13.986300001000075],[43.416910001000076,13.99446],[43.41862000100008,13.999579999000048],[43.435830001000056,13.99978],[43.44108,13.99642],[43.45061,13.99369],[43.45333,13.985170001000029],[43.45662999900003,13.980040001000077],[43.465050001000066,13.97675],[43.484830001000034,13.979479999000034],[43.4837,13.99545],[43.49112000100007,14.002240001000075],[43.49649,14.021460001000037],[43.49590322200004,14.032397905000039]]]}}]}