{"type":"FeatureCollection","features":[{"type":"Feature","id":"15242507B399982580631","properties":{"kind":"district","shapeId":"15242507B399982580631","name":"Hadibu","cityPcode":"YE32"},"geometry":{"type":"Polygon","coordinates":[[[53.54489997300004,12.353639996000027],[53.55093997200004,12.334729997000068],[53.57639997200005,12.331749997000031],[53.59497997100004,12.325409996000076],[53.60988997100003,12.322219996000058],[53.62653997000007,12.314049996000051],[53.68718996800004,12.29538999600004],[53.705789967000044,12.298459996000076],[53.754439966000064,12.295149996000077],[53.779779965000046,12.296179995000045],[53.824339964000046,12.306149996000045],[53.85063996400004,12.308319995000033],[53.87487996200008,12.311959995000052],[53.89775996100008,12.317519996000044],[53.911149961000035,12.318609995000031],[53.933119960000056,12.325129995000054],[53.947649959000046,12.32523999500006],[53.96911995800008,12.321889995000049],[54.00424995800006,12.32102999500006],[54.01749995700004,12.325659995000024],[54.02233995600005,12.329789995000056],[54.02955995700006,12.340499995000073],[54.03555995600004,12.343569995000053],[54.04850995600003,12.345829994000042],[54.068129955000074,12.351929994000045],[54.07560995500006,12.351749994000045],[54.09304995400004,12.346629994000068],[54.106839954000066,12.345099994000066],[54.144999951000045,12.343699994000076],[54.18130995000007,12.368929994000041],[54.20122994900004,12.386319994000075],[54.217579949000026,12.393209994000074],[54.23620994800007,12.411179994000065],[54.24808994700004,12.418609994000064],[54.25943994700003,12.435319993000064],[54.276999946000046,12.440459993000047],[54.303229945000055,12.44004999300006],[54.32556994400005,12.442799993000051],[54.356739943000036,12.451679993000027],[54.38470994100004,12.454759993000039],[54.40776994000004,12.466899992000037],[54.41484994000007,12.46860999300003],[54.42991993900006,12.479769992000058],[54.44197993800003,12.48394999200002],[54.448889938000036,12.487999992000027],[54.44832993800003,12.500289992000035],[54.450379938000026,12.506829992000064],[54.453989937000074,12.513189992000036],[54.46404993700003,12.519639993000055],[54.495149936000075,12.534409993000054],[54.50858993500003,12.537609992000057],[54.52852993300007,12.53853999200004],[54.538199933000044,12.545389992000025],[54.53450993300004,12.549939992000077],[54.51460993400008,12.550669992000053],[54.48996993600008,12.549149992000025],[54.47550993700003,12.551859992000061],[54.464939937000054,12.559409993000031],[54.43720993900007,12.573739992000071],[54.42202994000007,12.583999992000031],[54.376459942000054,12.606049993000056],[54.36270994300003,12.608979993000048],[54.32037994500007,12.612129993000053],[54.30850994600007,12.61477999300007],[54.290009946000055,12.623939994000068],[54.27459994800006,12.634899994000023],[54.25268994800007,12.647439993000035],[54.21091995100005,12.662579994000055],[54.207289950000074,12.667139994000024],[54.20376995100003,12.684169993000069],[54.197409951000054,12.682679994000068],[54.18006995200005,12.666159994000054],[54.16764995200003,12.665759994000041],[54.13553995400008,12.682779994000043],[54.11905995400008,12.69706999400006],[54.10514995500006,12.702579995000065],[54.09858995500008,12.702509994000025],[54.09050995500007,12.698709995000058],[54.08548995600006,12.687739994000026],[54.077089956000066,12.67903999500004],[54.05976995700007,12.670989994000024],[54.047239957000045,12.667299994000075],[54.04238995700007,12.662909994000074],[54.029999958000076,12.659309994000068],[54.00904995800005,12.650349995000056],[53.99141995900004,12.648199995000027],[53.976249960000075,12.652219995000053],[53.97463996000005,12.648359995000021],[53.97727996000003,12.638159995000024],[53.973829960000046,12.63379999500006],[53.960579960000075,12.634829995000075],[53.948549961000026,12.640319995000027],[53.935299961000055,12.644159995000052],[53.91526996200008,12.648649995000028],[53.90777996200006,12.649069995000048],[53.899129962000075,12.64104999500006],[53.876739963000034,12.627949995000051],[53.86712996300008,12.612149995000038],[53.85747996400005,12.606889996000064],[53.84294996400007,12.59606999600004],[53.81855996500008,12.598489996000069],[53.80608996600006,12.597679995000021],[53.80271996600004,12.603169996000076],[53.79193996600003,12.611669995000057],[53.73965996800007,12.636719996000068],[53.70822996900006,12.662439996000046],[53.703979969000045,12.648909996000043],[53.716159969000046,12.638919996000027],[53.73209996800006,12.622559995000074],[53.74861996800007,12.602119996000056],[53.74846996800005,12.561429996000072],[53.743009967000035,12.51124999600006],[53.718599968000035,12.494829996000021],[53.674549970000044,12.48646999600004],[53.64996997000003,12.471039996000059],[53.62321997000004,12.449979996000025],[53.61131997100006,12.424119996000059],[53.607789971000045,12.406859997000026],[53.595819971000026,12.389599997000062],[53.57784997200008,12.373039996000045],[53.54489997300004,12.353639996000027]]]}},{"type":"Feature","id":"15242507B10596271459975","properties":{"kind":"district","shapeId":"15242507B10596271459975","name":"Qalansiyah wa Abd Al Kuri","cityPcode":"YE32"},"geometry":{"type":"MultiPolygon","coordinates":[[[[53.311129977000064,12.11173999700003],[53.29641997700003,12.122219997000059],[53.290119978000064,12.123079997000048],[53.25774997800005,12.12198999800006],[53.24596997900005,12.119689997000023],[53.25748997900007,12.112589997000043],[53.27612997800003,12.10884999700005],[53.30724997800007,12.106649997000034],[53.311129977000064,12.11173999700003]]],[[[53.17525998100007,12.131749998000032],[53.16962998000008,12.13738999800006],[53.16623998100005,12.131749998000032],[53.17525998100007,12.131749998000032]]],[[[53.08104998200008,12.16409999700005],[53.06219998300003,12.168799997000065],[53.05088998300005,12.175429998000027],[53.03923998300007,12.17782999800005],[53.027659983000035,12.182589998000026],[53.02197998400004,12.180609998000023],[53.01923998400008,12.174559998000063],[53.01171998400008,12.165089998000042],[53.006479984000066,12.16215999700006],[52.98795998400004,12.161909998000056],[52.98788998400005,12.159329998000032],[52.991039984000054,12.154539998000075],[52.99562998400006,12.151139998000076],[53.00821998300006,12.148709997000026],[53.01711998400003,12.14001999800007],[53.02746998300006,12.13293999800004],[53.04704998300008,12.128929998000046],[53.05909998200008,12.123929998000051],[53.06539998200003,12.122839998000075],[53.08565998200004,12.126809998000056],[53.090929982000034,12.131149998000069],[53.09342998200003,12.136739998000053],[53.09359998200006,12.142849998000031],[53.09163998200006,12.14830999700007],[53.085599982000076,12.159049997000068],[53.08104998200008,12.16409999700005]]],[[[52.12796999300008,12.234379999000055],[52.121949993000044,12.237589999000022],[52.11611999400003,12.238439999000036],[52.09817999400008,12.233699999000066],[52.08677999400004,12.236809999000059],[52.06871999400005,12.23630999900007],[52.06326999400005,12.233849999000029],[52.060709994000035,12.234619999000074],[52.06242999400007,12.228929999000059],[52.066289994000044,12.224369999000032],[52.067509994000034,12.217749999000034],[52.07910999400008,12.213229999000077],[52.09121999300004,12.21057999900006],[52.10150999400008,12.201149999000052],[52.106819994000034,12.19842999900004],[52.13173999400004,12.19287999900007],[52.14277999400008,12.185079999000038],[52.148579994000045,12.183059999000022],[52.166189993000046,12.184259999000062],[52.184359993000044,12.180299999000056],[52.20200999300005,12.174229999000033],[52.22206999300005,12.170899999000028],[52.22785999300004,12.168409999000062],[52.229819992000046,12.162709999000072],[52.23487999300005,12.159529999000029],[52.271539992000044,12.145929999000032],[52.30901999200006,12.145479999000031],[52.37105999200003,12.151959999000042],[52.376749991000054,12.154409999000052],[52.37644999100007,12.160539999000036],[52.370629991000044,12.170559999000034],[52.37769999200003,12.180739999000025],[52.38918999200007,12.188919999000063],[52.39305999100003,12.19376999900004],[52.37019999100005,12.188919999000063],[52.32050999200004,12.188499999000044],[52.313959992000036,12.188889999000025],[52.302829992000056,12.19385999900004],[52.29095999300006,12.196509999000057],[52.24183999300004,12.199589999000068],[52.20693999300005,12.200209999000037],[52.18206999300003,12.207879999000056],[52.16468999400007,12.215129999000055],[52.14619999300004,12.232999999000072],[52.12796999300008,12.234379999000055]]],[[[53.150629982000055,12.633609998000054],[53.14822998200003,12.635009997000054],[53.14515998200005,12.630709997000054],[53.150629982000055,12.633609998000054]]],[[[53.16191998200003,12.644169997000063],[53.155879982000044,12.645729997000046],[53.15804998200008,12.639559997000049],[53.16191998200003,12.644169997000063]]],[[[53.70822996900006,12.662439996000046],[53.68090997000007,12.681919996000033],[53.666049970000074,12.695929996000075],[53.659539970000026,12.697739996000053],[53.611789972000054,12.699849996000069],[53.57930997200003,12.703239996000036],[53.55686997300006,12.713899996000066],[53.55104997300003,12.71521999600003],[53.53909997300008,12.715279997000039],[53.52660997400005,12.712529997000047],[53.51107997400004,12.701849996000021],[53.510019974000045,12.714579996000055],[53.50042997500003,12.706349996000029],[53.48876997500008,12.701419996000027],[53.48198997500003,12.685119997000072],[53.47382997500006,12.67573999700005],[53.46352997500003,12.66818999700007],[53.445499976000065,12.668629997000039],[53.426189976000046,12.665109997000059],[53.40284997700007,12.652939997000033],[53.403149976000066,12.646819997000023],[53.40920997600006,12.62854999700005],[53.40946997600008,12.620779997000056],[53.40539997600007,12.608879997000031],[53.404729976000056,12.56747999700002],[53.39949997700006,12.555849996000063],[53.391749977000075,12.54756999700004],[53.379449977000036,12.541079997000054],[53.36081997700006,12.536589997000021],[53.34244997800005,12.533509997000067],[53.313619979000066,12.533279998000069],[53.310389978000046,12.527909997000052],[53.31162997900003,12.521999997000023],[53.31525997800003,12.517439997000054],[53.329639978000046,12.511909997000032],[53.337009978000026,12.507499997000025],[53.35278997700004,12.492989997000052],[53.35639997700008,12.48772999700003],[53.38215997600008,12.478629997000041],[53.41500997600008,12.454529997000066],[53.43961997500003,12.445919997000033],[53.46177997500007,12.433619996000061],[53.47976997400008,12.414589997000064],[53.49271997400007,12.408149997000066],[53.502349974000026,12.400619997000035],[53.52226997300005,12.374729997000031],[53.53787997200004,12.362809997000056],[53.54489997300004,12.353639996000027],[53.57784997200008,12.373039996000045],[53.595819971000026,12.389599997000062],[53.607789971000045,12.406859997000026],[53.61131997100006,12.424119996000059],[53.62321997000004,12.449979996000025],[53.64996997000003,12.471039996000059],[53.674549970000044,12.48646999600004],[53.718599968000035,12.494829996000021],[53.743009967000035,12.51124999600006],[53.74846996800005,12.561429996000072],[53.74861996800007,12.602119996000056],[53.73209996800006,12.622559995000074],[53.716159969000046,12.638919996000027],[53.703979969000045,12.648909996000043],[53.70822996900006,12.662439996000046]]]]}}]}